<?xml version="1.0" encoding="UTF-8"?>
<osm version="0.6" generator="hand-written fixture">
 <node id="1001" version="1" lat="35.6798" lon="139.7647"><tag k="name" v="KITTEガーデン"/><tag k="tourism" v="viewpoint"/></node>
 <node id="1002" version="1" lat="35.6815" lon="139.7645"><tag k="name" v="スターバックス"/><tag k="amenity" v="cafe"/><tag k="brand" v="スターバックス"/></node>
 <node id="1003" version="1" lat="35.682" lon="139.766"><tag k="amenity" v="cafe"/></node>
 <node id="1004" version="1" lat="35.69" lon="139.77"><tag k="name" v="喫茶テスト"/><tag k="amenity" v="cafe"/></node>
 <node id="1005" version="1" lat="35.685" lon="139.77"><tag k="name" v="スーパー"/><tag k="shop" v="supermarket"/></node>
 <node id="1006" version="1" lat="35.7188" lon="139.7765"><tag k="name" v="東京国立博物館"/><tag k="tourism" v="museum"/></node>
 <node id="1007" version="1" lat="36.5" lon="139.7"><tag k="name" v="遠くの展望台"/><tag k="tourism" v="viewpoint"/></node>
 <node id="1008" version="1" lat="35.52" lon="139.7"><tag k="name" v="川崎の展望台"/><tag k="tourism" v="viewpoint"/></node>
 <node id="1009" version="1" lat="35.67" lon="139.76"><tag k="name" v="大きな神社"/><tag k="amenity" v="place_of_worship"/><tag k="religion" v="shinto"/></node>
 <node id="1010" version="1" lat="35.6715" lon="139.7538"/>
 <node id="1011" version="1" lat="35.6715" lon="139.7582"/>
 <node id="1012" version="1" lat="35.6755" lon="139.7582"/>
 <node id="1013" version="1" lat="35.6755" lon="139.7538"/>
 <node id="1014" version="1" lat="35.688" lon="139.77"/>
 <node id="1015" version="1" lat="35.688" lon="139.7702"/>
 <node id="1016" version="1" lat="35.6882" lon="139.7702"/>
 <node id="1017" version="1" lat="35.6882" lon="139.77"/>
 <node id="1018" version="1" lat="35.6745" lon="139.7394"/>
 <node id="1019" version="1" lat="35.6745" lon="139.7396"/>
 <node id="1020" version="1" lat="35.6747" lon="139.7396"/>
 <node id="1021" version="1" lat="35.6747" lon="139.7394"/>
 <node id="1022" version="1" lat="35.658" lon="139.76"/>
 <node id="1023" version="1" lat="35.658" lon="139.766"/>
 <node id="1024" version="1" lat="35.662" lon="139.766"/>
 <node id="1025" version="1" lat="35.662" lon="139.76"/>
 <node id="1026" version="1" lat="35.55" lon="139.0"/>
 <node id="1027" version="1" lat="35.55" lon="139.92"/>
 <node id="1028" version="1" lat="35.9" lon="139.92"/>
 <node id="1029" version="1" lat="35.9" lon="139.0"/>
 <node id="1030" version="1" lat="35.7" lon="139.0"/>
 <node id="1031" version="1" lat="34.7" lon="139.35"/>
 <node id="1032" version="1" lat="34.7" lon="139.45"/>
 <node id="1033" version="1" lat="34.8" lon="139.45"/>
 <node id="1034" version="1" lat="34.8" lon="139.35"/>
 <way id="2001" version="1"><nd ref="1010"/><nd ref="1011"/><nd ref="1012"/><nd ref="1013"/><nd ref="1010"/><tag k="name" v="日比谷公園"/><tag k="leisure" v="park"/><tag k="wikidata" v="Q900001"/></way>
 <way id="2002" version="1"><nd ref="1014"/><nd ref="1015"/><nd ref="1016"/><nd ref="1017"/><nd ref="1014"/><tag k="name" v="小さな公園"/><tag k="leisure" v="park"/></way>
 <way id="2003" version="1"><nd ref="1018"/><nd ref="1019"/><nd ref="1020"/><nd ref="1021"/><nd ref="1018"/><tag k="name" v="日枝神社"/><tag k="amenity" v="place_of_worship"/><tag k="religion" v="shinto"/></way>
 <way id="2004" version="1"><nd ref="1022"/><nd ref="1023"/><nd ref="1024"/><nd ref="1025"/><nd ref="1022"/></way>
 <way id="2101" version="1"><nd ref="1026"/><nd ref="1027"/><tag k="boundary" v="administrative"/></way>
 <way id="2102" version="1"><nd ref="1027"/><nd ref="1028"/><nd ref="1029"/></way>
 <way id="2103" version="1"><nd ref="1026"/><nd ref="1030"/><nd ref="1029"/></way>
 <way id="2104" version="1"><nd ref="1031"/><nd ref="1032"/><nd ref="1033"/><nd ref="1034"/><nd ref="1031"/></way>
 <relation id="3001" version="1"><member type="way" ref="2004" role="outer"/><tag k="type" v="multipolygon"/><tag k="name" v="浜離宮恩賜庭園"/><tag k="leisure" v="garden"/></relation>
 <relation id="3101" version="1"><member type="way" ref="2101" role="outer"/><member type="way" ref="2102" role="outer"/><member type="way" ref="2103" role="outer"/><member type="way" ref="2104" role="outer"/><tag k="type" v="boundary"/><tag k="boundary" v="administrative"/><tag k="admin_level" v="4"/><tag k="name" v="東京都"/><tag k="ISO3166-2" v="JP-13"/></relation>
</osm>
